[{"OBJECT_NAME":"IRIDIUM 128","OBJECT_ID":"2017-039J","EPOCH":"2026-03-09T22:17:06.660384","MEAN_MOTION":14.3421733,"ECCENTRICITY":0.00019867,"INCLINATION":86.3911,"RA_OF_ASC_NODE":66.6445,"ARG_OF_PERICENTER":95.0823,"MEAN_ANOMALY":265.0599,"EPHEMERIS_TYPE":0,"CLASSIFICATION_TYPE":"U","NORAD_CAT_ID":42811,"ELEMENT_SET_NO":999,"REV_AT_EPOCH":45575,"BSTAR":-1.154861e-5,"MEAN_MOTION_DOT":-1.3e-7,"MEAN_MOTION_DDOT":0},{"OBJECT_NAME":"COSMOS 676","OBJECT_ID":"1974-071A","EPOCH":"2026-03-09T22:01:11.064288","MEAN_MOTION":14.33501445,"ECCENTRICITY":0.00133113,"INCLINATION":74.0466,"RA_OF_ASC_NODE":284.4069,"ARG_OF_PERICENTER":159.8939,"MEAN_ANOMALY":200.274,"EPHEMERIS_TYPE":0,"CLASSIFICATION_TYPE":"U","NORAD_CAT_ID":7433,"ELEMENT_SET_NO":999,"REV_AT_EPOCH":68862,"BSTAR":5.264421e-5,"MEAN_MOTION_DOT":1.2e-6,"MEAN_MOTION_DDOT":0}]
